{
 "type": "FeatureCollection",
 "crs_note": "EPSG:3310 meters",
 "features": [
  {
   "type": "Feature",
   "properties": {
    "source": "ahl markup p1_final 2026-09-13",
    "target": "mountains"
   },
   "geometry": {
    "type": "Polygon",
    "coordinates": [
     [
      [
       -232078.85304659497,
       4788.696537678163
      ],
      [
       -234420.5495818399,
       4788.696537678163
      ],
      [
       -235005.97371565114,
       5374.236252545814
      ],
      [
       -237347.67025089604,
       5959.775967413407
      ],
      [
       -244080.0477897252,
       12693.482688391043
      ],
      [
       -244080.0477897252,
       13279.022403258694
      ],
      [
       -245836.3201911589,
       15621.181262729124
      ],
      [
       -245836.3201911589,
       18548.879837067205
      ],
      [
       -243201.91158900838,
       21183.80855397146
      ],
      [
       -242616.48745519717,
       21183.80855397146
      ],
      [
       -239982.07885304658,
       18548.879837067205
      ],
      [
       -239982.07885304658,
       16206.720977596717
      ],
      [
       -239396.65471923535,
       15035.64154786153
      ],
      [
       -235005.97371565114,
       10644.093686354381
      ],
      [
       -233249.7013142174,
       10644.093686354381
      ],
      [
       -232078.85304659497,
       11815.173116089625
      ],
      [
       -230908.00477897254,
       11815.173116089625
      ],
      [
       -228273.596176822,
       9180.244399185312
      ],
      [
       -228859.0203106332,
       8009.164969450068
      ],
      [
       -232078.85304659497,
       4788.696537678163
      ]
     ]
    ]
   }
  },
  {
   "type": "Feature",
   "properties": {
    "source": "ahl markup p1_final 2026-09-13",
    "target": "mountains"
   },
   "geometry": {
    "type": "Polygon",
    "coordinates": [
     [
      [
       -140167.2640382318,
       -160333.50305498982
      ],
      [
       -140752.688172043,
       -160333.50305498982
      ],
      [
       -141923.5364396655,
       -159162.42362525463
      ],
      [
       -142508.9605734767,
       -159747.96334012217
      ],
      [
       -143679.80884109915,
       -159747.96334012217
      ],
      [
       -144850.65710872159,
       -158576.88391038697
      ],
      [
       -146021.5053763441,
       -158576.88391038697
      ],
      [
       -147192.35364396655,
       -157405.80448065168
      ],
      [
       -148363.20191158904,
       -157405.80448065168
      ],
      [
       -150412.1863799283,
       -155356.4154786151
      ],
      [
       -150412.1863799283,
       -153014.2566191447
      ],
      [
       -149241.33811230588,
       -150672.0977596741
      ],
      [
       -149241.33811230588,
       -145987.78004073314
      ],
      [
       -148655.91397849465,
       -145402.2403258656
      ],
      [
       -148655.91397849465,
       -142474.54175152746
      ],
      [
       -145436.08124253285,
       -139254.07331975567
      ],
      [
       -144557.945041816,
       -139546.84317718932
      ],
      [
       -138703.7037037037,
       -145987.78004073314
      ],
      [
       -138703.7037037037,
       -148329.93890020362
      ],
      [
       -136362.00716845877,
       -150672.0977596741
      ],
      [
       -136362.00716845877,
       -153014.2566191447
      ],
      [
       -136947.43130226998,
       -153599.79633401224
      ],
      [
       -136362.00716845877,
       -154770.87576374743
      ],
      [
       -136362.00716845877,
       -156527.49490835037
      ],
      [
       -140167.2640382318,
       -160333.50305498982
      ]
     ]
    ]
   }
  },
  {
   "type": "Feature",
   "properties": {
    "source": "ahl markup p1_final 2026-09-13",
    "target": "mountains"
   },
   "geometry": {
    "type": "Polygon",
    "coordinates": [
     [
      [
       187670.25089605726,
       -465399.69450101844
      ],
      [
       186499.40262843494,
       -465399.69450101844
      ],
      [
       183572.28195937874,
       -463057.53564154793
      ],
      [
       181230.5854241339,
       -462471.9959266803
      ],
      [
       180645.16129032258,
       -461886.4562118125
      ],
      [
       173620.07168458786,
       -461300.91649694496
      ],
      [
       173034.64755077663,
       -460715.3767820773
      ],
      [
       164253.28554360816,
       -460715.3767820773
      ],
      [
       161618.87694145765,
       -458080.4480651732
      ],
      [
       161618.87694145765,
       -456323.82892057026
      ],
      [
       164253.28554360816,
       -453688.90020366595
      ],
      [
       165424.1338112306,
       -453103.36048879847
      ],
      [
       170692.95101553167,
       -453103.36048879847
      ],
      [
       171278.37514934287,
       -452517.8207739308
      ],
      [
       174205.49581839895,
       -452517.8207739308
      ],
      [
       174790.9199522103,
       -453103.36048879847
      ],
      [
       176547.19235364394,
       -453103.36048879847
      ],
      [
       177132.61648745515,
       -453688.90020366595
      ],
      [
       182986.85782556754,
       -453688.90020366595
      ],
      [
       183572.28195937874,
       -454274.4399185336
      ],
      [
       184743.13022700118,
       -454274.4399185336
      ],
      [
       187962.96296296292,
       -457494.9083503055
      ],
      [
       187962.96296296292,
       -460422.6069246437
      ],
      [
       189719.2353643967,
       -462179.2260692464
      ],
      [
       189719.2353643967,
       -463350.30549898156
      ],
      [
       187670.25089605726,
       -465399.69450101844
      ]
     ]
    ]
   }
  },
  {
   "type": "Feature",
   "properties": {
    "source": "ahl markup p1_final 2026-09-13",
    "target": "mountains"
   },
   "geometry": {
    "type": "Polygon",
    "coordinates": [
     [
      [
       207574.6714456392,
       -479452.6476578411
      ],
      [
       206403.82317801664,
       -479452.6476578411
      ],
      [
       205232.97491039432,
       -478281.56822810584
      ],
      [
       202891.27837514936,
       -477110.48879837064
      ],
      [
       198500.59737156506,
       -473304.4806517311
      ],
      [
       198500.59737156506,
       -472133.4012219959
      ],
      [
       201135.00597371557,
       -469498.47250509163
      ],
      [
       201720.43010752692,
       -469498.47250509163
      ],
      [
       205232.97491039432,
       -472426.17107942974
      ],
      [
       207574.6714456392,
       -473597.25050916494
      ],
      [
       209623.6559139785,
       -475646.63951120153
      ],
      [
       210209.0800477897,
       -476817.71894093696
      ],
      [
       207574.6714456392,
       -479452.6476578411
      ]
     ]
    ]
   }
  },
  {
   "type": "Feature",
   "properties": {
    "source": "ahl markup p1_final 2026-09-13",
    "target": "coast"
   },
   "geometry": {
    "type": "Polygon",
    "coordinates": [
     [
      [
       -225639.18757467144,
       15328.4114052953
      ],
      [
       -228859.0203106332,
       17963.340122199555
      ],
      [
       -228859.0203106332,
       19134.4195519348
      ],
      [
       -228273.596176822,
       19719.95926680239
      ],
      [
       -228859.0203106332,
       23233.197556008177
      ],
      [
       -226224.61170848267,
       25868.126272912436
      ],
      [
       -225053.76344086023,
       25868.126272912436
      ],
      [
       -224175.62724014337,
       24989.816700611016
      ],
      [
       -223004.7789725209,
       23818.737270875772
      ],
      [
       -223004.7789725209,
       22647.657841140528
      ],
      [
       -222419.3548387097,
       22062.118126272937
      ],
      [
       -222419.3548387097,
       18548.879837067205
      ],
      [
       -225639.18757467144,
       15328.4114052953
      ]
     ]
    ]
   }
  },
  {
   "type": "Feature",
   "properties": {
    "source": "ahl markup p1_final 2026-09-13",
    "target": "coast"
   },
   "geometry": {
    "type": "Polygon",
    "coordinates": [
     [
      [
       -167682.1983273596,
       -75430.2443991853
      ],
      [
       -170609.31899641576,
       -75430.2443991853
      ],
      [
       -171194.743130227,
       -74844.70468431778
      ],
      [
       -172365.59139784946,
       -74844.70468431778
      ],
      [
       -174707.28793309437,
       -73673.62525458247
      ],
      [
       -177634.40860215054,
       -70745.92668024433
      ],
      [
       -179976.10513739547,
       -70160.3869653768
      ],
      [
       -180561.5292712067,
       -69574.84725050915
      ],
      [
       -182317.80167264037,
       -69574.84725050915
      ],
      [
       -183488.64994026284,
       -68403.76782077397
      ],
      [
       -184074.07407407407,
       -68403.76782077397
      ],
      [
       -187293.90681003584,
       -65183.29938900206
      ],
      [
       -187293.90681003584,
       -64597.75967413441
      ],
      [
       -184074.07407407407,
       -61377.2912423625
      ],
      [
       -182903.2258064516,
       -61377.2912423625
      ],
      [
       -180561.5292712067,
       -63133.91038696545
      ],
      [
       -178805.256869773,
       -63133.91038696545
      ],
      [
       -175292.71206690563,
       -64890.52953156829
      ],
      [
       -170609.31899641576,
       -68989.3075356415
      ],
      [
       -169145.75866188767,
       -68696.53767820774
      ],
      [
       -169145.75866188767,
       -67525.45824847244
      ],
      [
       -168560.3345280765,
       -66939.9185336049
      ],
      [
       -168560.3345280765,
       -59913.44195519355
      ],
      [
       -169145.75866188767,
       -59327.9022403259
      ],
      [
       -169145.75866188767,
       -56985.74338085541
      ],
      [
       -169731.18279569893,
       -56400.20366598776
      ],
      [
       -169731.18279569893,
       -51715.8859470469
      ],
      [
       -170316.60692951013,
       -51130.34623217925
      ],
      [
       -170316.60692951013,
       -49959.266802444065
      ],
      [
       -171487.45519713266,
       -48788.187372708766
      ],
      [
       -172072.87933094383,
       -45860.48879837063
      ],
      [
       -172658.30346475507,
       -45274.94908350309
      ],
      [
       -172658.30346475507,
       -42932.7902240326
      ],
      [
       -175585.4241338112,
       -38834.01221995927
      ],
      [
       -175585.4241338112,
       -38248.47250509168
      ],
      [
       -172951.01553166073,
       -35613.54378818737
      ],
      [
       -172365.59139784946,
       -35613.54378818737
      ],
      [
       -167974.9103942652,
       -40005.09164969452
      ],
      [
       -166804.06212664276,
       -42347.25050916495
      ],
      [
       -166804.06212664276,
       -44689.40936863544
      ],
      [
       -165047.78972520906,
       -47617.10794297346
      ],
      [
       -165047.78972520906,
       -48788.187372708766
      ],
      [
       -163876.94145758662,
       -51130.34623217925
      ],
      [
       -163291.5173237754,
       -56985.74338085541
      ],
      [
       -162706.0931899642,
       -57571.283095722945
      ],
      [
       -162706.0931899642,
       -65768.8391038696
      ],
      [
       -162120.66905615295,
       -66354.37881873724
      ],
      [
       -162120.66905615295,
       -68696.53767820774
      ],
      [
       -163291.5173237754,
       -71038.69653767822
      ],
      [
       -167682.1983273596,
       -75430.2443991853
      ]
     ]
    ]
   }
  }
 ]
}