{
 "type": "FeatureCollection",
 "crs_note": "EPSG:3310 meters",
 "features": [
  {
   "type": "Feature",
   "properties": {
    "source": "ahl markup 2026-09-13",
    "role": "mountain edge barrier"
   },
   "geometry": {
    "type": "LineString",
    "coordinates": [
     [
      -174113.5,
      2033.8
     ],
     [
      -183120.6,
      9831.0
     ],
     [
      -187446.8,
      16139.6
     ],
     [
      -189361.7,
      20463.5
     ],
     [
      -189361.7,
      24787.4
     ],
     [
      -188156.0,
      28189.7
     ],
     [
      -182836.9,
      31804.8
     ],
     [
      -180070.9,
      34994.5
     ],
     [
      -179078.0,
      39531.1
     ],
     [
      -179007.1,
      46265.0
     ]
    ]
   }
  },
  {
   "type": "Feature",
   "properties": {
    "source": "ahl markup 2026-09-13",
    "role": "mountain edge barrier"
   },
   "geometry": {
    "type": "LineString",
    "coordinates": [
     [
      -188368.8,
      -18664.1
     ],
     [
      -190141.8,
      -16112.3
     ],
     [
      -191276.6,
      -11575.8
     ],
     [
      -191205.7,
      -8386.0
     ],
     [
      -189361.7,
      -1652.1
     ],
     [
      -189858.2,
      5365.3
     ],
     [
      -194893.6,
      17557.3
     ],
     [
      -195602.8,
      26063.2
     ],
     [
      -197021.3,
      30316.2
     ],
     [
      -199007.1,
      33293.3
     ],
     [
      -203404.3,
      37121.0
     ],
     [
      -209148.9,
      39318.4
     ],
     [
      -213971.6,
      39602.0
     ],
     [
      -221063.8,
      35774.3
     ],
     [
      -224539.0,
      32584.5
     ],
     [
      -227375.9,
      27126.5
     ],
     [
      -227659.6,
      12453.7
     ],
     [
      -231489.4,
      6924.8
     ],
     [
      -236099.3,
      7066.5
     ],
     [
      -239858.2,
      12595.4
     ]
    ]
   }
  }
 ]
}